{
    "week": 295,
    "satellites": [
        {
            "Name": "GSAT0101 (GALILEO-PFM)",
            "Line1": "1 37846U 11060A   24332.79384600 -.00000074  00000+0  00000+0 0  9997",
            "Line2": "2 37846  57.1204 357.1084 0002333 307.8284  52.2069  1.70475953 81464",
            "SatelliteNumber": "37846",
            "Classification": "U",
            "LaunchYear": "11",
            "LaunchNumber": "060",
            "PieceOfLaunch": "A",
            "EpochYear": "24",
            "EpochDay": 332.793846,
            "FirstDerivativeMeanMotion": -7.4e-07,
            "SecondDerivativeMeanMotion": "00000+0",
            "BSTAR": "00000+0",
            "SetNumber": "999",
            "Inclination": 57.1204,
            "RAAN": 357.1084,
            "Eccentricity": 0.0002333,
            "ArgumentOfPerigee": 307.8284,
            "MeanAnomaly": 52.2069,
            "MeanMotion": 1.70475953,
            "RevolutionNumber": "8146"
        },
        {
            "Name": "GSAT0102 (GALILEO-FM2)",
            "Line1": "1 37847U 11060B   24335.05882696 -.00000066  00000+0  00000+0 0  9999",
            "Line2": "2 37847  57.1210 357.0473 0004357 302.6759  52.8093  1.70475421 81509",
            "SatelliteNumber": "37847",
            "Classification": "U",
            "LaunchYear": "11",
            "LaunchNumber": "060",
            "PieceOfLaunch": "B",
            "EpochYear": "24",
            "EpochDay": 335.05882696,
            "FirstDerivativeMeanMotion": -6.6e-07,
            "SecondDerivativeMeanMotion": "00000+0",
            "BSTAR": "00000+0",
            "SetNumber": "999",
            "Inclination": 57.121,
            "RAAN": 357.0473,
            "Eccentricity": 0.0004357,
            "ArgumentOfPerigee": 302.6759,
            "MeanAnomaly": 52.8093,
            "MeanMotion": 1.70475421,
            "RevolutionNumber": "8150"
        },
        {
            "Name": "GSAT0103 (GALILEO-FM3)",
            "Line1": "1 38857U 12055A   24334.59296551  .00000051  00000+0  00000+0 0  9996",
            "Line2": "2 38857  55.4860 117.0584 0002407 249.6270 110.3138  1.70473537 75523",
            "SatelliteNumber": "38857",
            "Classification": "U",
            "LaunchYear": "12",
            "LaunchNumber": "055",
            "PieceOfLaunch": "A",
            "EpochYear": "24",
            "EpochDay": 334.59296551,
            "FirstDerivativeMeanMotion": 5.1e-07,
            "SecondDerivativeMeanMotion": "00000+0",
            "BSTAR": "00000+0",
            "SetNumber": "999",
            "Inclination": 55.486,
            "RAAN": 117.0584,
            "Eccentricity": 0.0002407,
            "ArgumentOfPerigee": 249.627,
            "MeanAnomaly": 110.3138,
            "MeanMotion": 1.70473537,
            "RevolutionNumber": "7552"
        },
        {
            "Name": "GSAT0201 (GALILEO 5)",
            "Line1": "1 40128U 14050A   24335.09665994 -.00000073  00000+0  00000+0 0  9999",
            "Line2": "2 40128  49.4874 296.3822 1615539 157.6953 210.2360  1.85519674 67857",
            "SatelliteNumber": "40128",
            "Classification": "U",
            "LaunchYear": "14",
            "LaunchNumber": "050",
            "PieceOfLaunch": "A",
            "EpochYear": "24",
            "EpochDay": 335.09665994,
            "FirstDerivativeMeanMotion": -7.3e-07,
            "SecondDerivativeMeanMotion": "00000+0",
            "BSTAR": "00000+0",
            "SetNumber": "999",
            "Inclination": 49.4874,
            "RAAN": 296.3822,
            "Eccentricity": 0.1615539,
            "ArgumentOfPerigee": 157.6953,
            "MeanAnomaly": 210.236,
            "MeanMotion": 1.85519674,
            "RevolutionNumber": "6785"
        },
        {
            "Name": "GSAT0202 (GALILEO 6)",
            "Line1": "1 40129U 14050B   24334.27634886 -.00000078  00000+0  00000+0 0  9990",
            "Line2": "2 40129  49.5044 295.4945 1614905 158.4549 209.2203  1.85520419 69978",
            "SatelliteNumber": "40129",
            "Classification": "U",
            "LaunchYear": "14",
            "LaunchNumber": "050",
            "PieceOfLaunch": "B",
            "EpochYear": "24",
            "EpochDay": 334.27634886,
            "FirstDerivativeMeanMotion": -7.8e-07,
            "SecondDerivativeMeanMotion": "00000+0",
            "BSTAR": "00000+0",
            "SetNumber": "999",
            "Inclination": 49.5044,
            "RAAN": 295.4945,
            "Eccentricity": 0.1614905,
            "ArgumentOfPerigee": 158.4549,
            "MeanAnomaly": 209.2203,
            "MeanMotion": 1.85520419,
            "RevolutionNumber": "6997"
        },
        {
            "Name": "GSAT0203 (GALILEO 7)",
            "Line1": "1 40544U 15017A   24334.33242462 -.00000069  00000+0  00000+0 0  9997",
            "Line2": "2 40544  56.9150 356.9784 0006091 262.7335  97.2535  1.70476134 60236",
            "SatelliteNumber": "40544",
            "Classification": "U",
            "LaunchYear": "15",
            "LaunchNumber": "017",
            "PieceOfLaunch": "A",
            "EpochYear": "24",
            "EpochDay": 334.33242462,
            "FirstDerivativeMeanMotion": -6.9e-07,
            "SecondDerivativeMeanMotion": "00000+0",
            "BSTAR": "00000+0",
            "SetNumber": "999",
            "Inclination": 56.915,
            "RAAN": 356.9784,
            "Eccentricity": 0.0006091,
            "ArgumentOfPerigee": 262.7335,
            "MeanAnomaly": 97.2535,
            "MeanMotion": 1.70476134,
            "RevolutionNumber": "6023"
        },
        {
            "Name": "GSAT0204 (GALILEO 8)",
            "Line1": "1 40545U 15017B   24334.00048929 -.00000070  00000+0  00000+0 0  9996",
            "Line2": "2 40545  56.9213 357.0035 0005849 252.2200 107.7726  1.70475824 60237",
            "SatelliteNumber": "40545",
            "Classification": "U",
            "LaunchYear": "15",
            "LaunchNumber": "017",
            "PieceOfLaunch": "B",
            "EpochYear": "24",
            "EpochDay": 334.00048929,
            "FirstDerivativeMeanMotion": -7e-07,
            "SecondDerivativeMeanMotion": "00000+0",
            "BSTAR": "00000+0",
            "SetNumber": "999",
            "Inclination": 56.9213,
            "RAAN": 357.0035,
            "Eccentricity": 0.0005849,
            "ArgumentOfPerigee": 252.22,
            "MeanAnomaly": 107.7726,
            "MeanMotion": 1.70475824,
            "RevolutionNumber": "6023"
        },
        {
            "Name": "GSAT0205 (GALILEO 9)",
            "Line1": "1 40889U 15045A   24333.18239635  .00000004  00000+0  00000+0 0  9998",
            "Line2": "2 40889  55.1462 237.2414 0005709  32.8858 327.2046  1.70473082 57369",
            "SatelliteNumber": "40889",
            "Classification": "U",
            "LaunchYear": "15",
            "LaunchNumber": "045",
            "PieceOfLaunch": "A",
            "EpochYear": "24",
            "EpochDay": 333.18239635,
            "FirstDerivativeMeanMotion": 4e-08,
            "SecondDerivativeMeanMotion": "00000+0",
            "BSTAR": "00000+0",
            "SetNumber": "999",
            "Inclination": 55.1462,
            "RAAN": 237.2414,
            "Eccentricity": 0.0005709,
            "ArgumentOfPerigee": 32.8858,
            "MeanAnomaly": 327.2046,
            "MeanMotion": 1.70473082,
            "RevolutionNumber": "5736"
        },
        {
            "Name": "GSAT0206 (GALILEO 10)",
            "Line1": "1 40890U 15045B   24335.16277405  .00000020  00000+0  00000+0 0  9995",
            "Line2": "2 40890  55.1435 237.1818 0003171  13.3432 346.7346  1.70473146 57428",
            "SatelliteNumber": "40890",
            "Classification": "U",
            "LaunchYear": "15",
            "LaunchNumber": "045",
            "PieceOfLaunch": "B",
            "EpochYear": "24",
            "EpochDay": 335.16277405,
            "FirstDerivativeMeanMotion": 2e-07,
            "SecondDerivativeMeanMotion": "00000+0",
            "BSTAR": "00000+0",
            "SetNumber": "999",
            "Inclination": 55.1435,
            "RAAN": 237.1818,
            "Eccentricity": 0.0003171,
            "ArgumentOfPerigee": 13.3432,
            "MeanAnomaly": 346.7346,
            "MeanMotion": 1.70473146,
            "RevolutionNumber": "5742"
        },
        {
            "Name": "GSAT0209 (GALILEO 12)",
            "Line1": "1 41174U 15079A   24334.15877668  .00000051  00000+0  00000+0 0  9997",
            "Line2": "2 41174  55.5051 116.7809 0001869 346.1948  13.7684  1.70474486 55720",
            "SatelliteNumber": "41174",
            "Classification": "U",
            "LaunchYear": "15",
            "LaunchNumber": "079",
            "PieceOfLaunch": "A",
            "EpochYear": "24",
            "EpochDay": 334.15877668,
            "FirstDerivativeMeanMotion": 5.1e-07,
            "SecondDerivativeMeanMotion": "00000+0",
            "BSTAR": "00000+0",
            "SetNumber": "999",
            "Inclination": 55.5051,
            "RAAN": 116.7809,
            "Eccentricity": 0.0001869,
            "ArgumentOfPerigee": 346.1948,
            "MeanAnomaly": 13.7684,
            "MeanMotion": 1.70474486,
            "RevolutionNumber": "5572"
        }
    ]
}